NORAD_CAT_ID,OBJECT_NAME,OBJECT_TYPE,EPOCH,MEAN_MOTION,ECCENTRICITY,INCLINATION,RA_OF_ASC_NODE,ARG_OF_PERICENTER,MEAN_ANOMALY,BSTAR,MEAN_MOTION_DOT,MEAN_MOTION_DDOT,TLE_LINE0,TLE_LINE1,TLE_LINE2,SEMIMAJOR_AXIS,PERIOD,APOGEE,PERIGEE,DECAYED
53724.0,STARLINK-4663,PAYLOAD,2024-01-13 17:34:48,15.08846098,0.0001305,53.2164,182.2159,100.8052,259.3087,1.0762e-05,-1.17e-06,0.0,0 STARLINK-4663,1 53724U 22107AA  24013.73250569 -.00000117  00000-0  10762-4 0  9990,2 53724  53.2164 182.2159 0001305 100.8052 259.3087 15.08846098 75305,6917.862,95.437,540.63,538.824,0.0
53724.0,STARLINK-4663,PAYLOAD,2024-01-14 11:04:03,15.08837637,0.000155,53.2167,178.9462,72.3247,287.7914,3.9248e-05,3.37e-06,0.0,0 STARLINK-4663,1 53724U 22107AA  24014.46115206  .00000337  00000-0  39248-4 0  9992,2 53724  53.2167 178.9462 0001550  72.3247 287.7914 15.08837637 75413,6917.888,95.438,540.825,538.68,0.0
53724.0,STARLINK-4663,PAYLOAD,2024-01-14 14:14:49,15.08838081,0.0001381,53.2163,178.3509,82.1794,277.9355,4.267e-05,3.91e-06,0.0,0 STARLINK-4663,1 53724U 22107AA  24014.59363115  .00000391  00000-0  42670-4 0  9993,2 53724  53.2163 178.3509 0001381  82.1794 277.9355 15.08838081 75899,6917.886,95.438,540.707,538.796,0.0
53724.0,STARLINK-4663,PAYLOAD,2024-01-14 20:36:22,15.08841018,0.0001322,53.2159,177.1602,85.9947,274.1196,5.3656e-05,5.66e-06,0.0,0 STARLINK-4663,1 53724U 22107AA  24014.85858873  .00000566  00000-0  53656-4 0  9992,2 53724  53.2159 177.1602 0001322  85.9947 274.1196 15.08841018 75932,6917.877,95.437,540.657,538.828,0.0
53724.0,STARLINK-4663,PAYLOAD,2024-01-15 14:05:36,15.08839485,0.0001327,53.2154,173.8884,91.5049,268.6096,5.2346e-05,5.45e-06,0.0,0 STARLINK-4663,1 53724U 22107AA  24015.58722957  .00000545  00000-0  52346-4 0  9998,2 53724  53.2154 173.8884 0001327  91.5049 268.6096 15.08839485 76048,6917.882,95.438,540.665,538.829,0.0
53724.0,STARLINK-4663,PAYLOAD,2024-01-15 17:16:22,15.08840944,0.0001351,53.2156,173.2938,87.6247,272.49,6.1689e-05,6.94e-06,0.0,0 STARLINK-4663,1 53724U 22107AA  24015.71970860  .00000694  00000-0  61689-4 0  9996,2 53724  53.2156 173.2938 0001351  87.6247 272.4900 15.08840944 75607,6917.878,95.437,540.677,538.808,0.0
53724.0,STARLINK-4663,PAYLOAD,2024-01-16 10:45:37,15.08836244,0.0001395,53.2157,170.023,81.0959,279.0191,1.4283e-05,-6.1e-07,0.0,0 STARLINK-4663,1 53724U 22107AA  24016.44835457 -.00000061  00000-0  14283-4 0  9996,2 53724  53.2157 170.0230 0001395  81.0959 279.0191 15.08836244 75719,6917.892,95.438,540.722,538.792,0.0
53724.0,STARLINK-4663,PAYLOAD,2024-01-16 13:56:24,15.08836013,0.0001374,53.2159,169.4281,86.2024,273.9125,9.0613e-06,-1.44e-06,0.0,0 STARLINK-4663,1 53724U 22107AA  24016.58083486 -.00000144  00000-0  90613-5 0  9992,2 53724  53.2159 169.4281 0001374  86.2024 273.9125 15.08836013 76193,6917.893,95.438,540.708,538.807,0.0
53724.0,STARLINK-4663,PAYLOAD,2024-01-16 18:42:33,15.08838599,0.0001396,53.2164,168.5355,91.4419,268.6733,2.5768e-05,1.22e-06,0.0,0 STARLINK-4663,1 53724U 22107AA  24016.77955271  .00000122  00000-0  25768-4 0  9996,2 53724  53.2164 168.5355 0001396  91.4419 268.6733 15.08838599 76222,6917.885,95.438,540.715,538.784,0.0
53724.0,STARLINK-4663,PAYLOAD,2024-01-17 13:47:11,15.08833805,0.0001473,53.217,164.9659,95.0962,265.0199,-2.5317e-05,-6.91e-06,0.0,0 STARLINK-4663,1 53724U 22107AA  24017.57444020 -.00000691  00000-0 -25317-4 0  9993,2 53724  53.2170 164.9659 0001473  95.0962 265.0199 15.08833805 76340,6917.899,95.438,540.783,538.745,0.0
53724.0,STARLINK-4663,PAYLOAD,2024-01-17 15:22:34,15.0883464,0.0001479,53.2172,164.6685,94.615,265.5011,-1.8922e-05,-5.89e-06,0.0,0 STARLINK-4663,1 53724U 22107AA  24017.64067962 -.00000589  00000-0 -18922-4 0  9997,2 53724  53.2172 164.6685 0001479  94.6150 265.5011 15.08834640 75893,6917.897,95.438,540.785,538.739,0.0
53724.0,STARLINK-4663,PAYLOAD,2024-01-18 13:37:58,15.08836462,0.0001543,53.2177,160.5037,100.4141,259.7025,4.8635e-05,4.86e-06,0.0,0 STARLINK-4663,1 53724U 22107AA  24018.56803880  .00000486  00000-0  48635-4 0  9994,2 53724  53.2177 160.5037 0001543 100.4141 259.7025 15.08836462 76493,6917.891,95.438,540.824,538.689,0.0
53724.0,STARLINK-4663,PAYLOAD,2024-01-18 16:48:44,15.08839486,0.0001358,53.2169,159.913,78.9064,281.2081,8.0924e-05,1e-05,0.0,0 STARLINK-4663,1 53724U 22107AA  24018.70051742  .00001000  00000-0  80924-4 0  9992,2 53724  53.2169 159.9130 0001358  78.9064 281.2081 15.08839486 76050,6917.882,95.438,540.686,538.808,0.0
53724.0,STARLINK-4663,PAYLOAD,2024-01-19 13:28:45,15.08844218,0.0001272,53.2156,156.0485,72.2353,287.8777,0.0001068,1.412e-05,0.0,0 STARLINK-4663,1 53724U 22107AA  24019.56163348  .00001412  00000-0  10680-3 0  9991,2 53724  53.2156 156.0485 0001272  72.2353 287.8777 15.08844218 76648,6917.867,95.437,540.612,538.853,0.0
53724.0,STARLINK-4663,PAYLOAD,2024-01-19 16:39:31,15.08848409,0.0001326,53.2158,155.4532,68.6973,291.4161,0.00013378,1.842e-05,0.0,0 STARLINK-4663,1 53724U 22107AA  24019.69411027  .00001842  00000-0  13378-3 0  9999,2 53724  53.2158 155.4532 0001326  68.6973 291.4161 15.08848409 76209,6917.855,95.437,540.637,538.802,0.0
53724.0,STARLINK-4663,PAYLOAD,2024-01-20 08:33:23,15.08837962,0.0001358,53.2156,152.4804,77.0883,283.0261,-3.4414e-05,-8.36e-06,0.0,0 STARLINK-4663,1 53724U 22107AA  24020.35652308 -.00000836  00000-0 -34414-4 0  9992,2 53724  53.2156 152.4804 0001358  77.0883 283.0261 15.08837962 76306,6917.887,95.438,540.691,538.812,0.0
53724.0,STARLINK-4663,PAYLOAD,2024-01-20 14:54:56,15.08838492,0.0001389,53.216,151.2906,73.7439,286.3706,-1.3566e-05,-5.04e-06,0.0,0 STARLINK-4663,1 53724U 22107AA  24020.62148258 -.00000504  00000-0 -13566-4 0  9993,2 53724  53.2160 151.2906 0001389  73.7439 286.3706 15.08838492 76809,6917.885,95.438,540.711,538.789,0.0
53724.0,STARLINK-4663,PAYLOAD,2024-01-21 13:10:19,15.08843457,0.0001486,53.2159,147.1287,66.2635,293.8513,4.0215e-06,-2.24e-06,0.0,0 STARLINK-4663,1 53724U 22107AA  24021.54883997 -.00000224  00000-0  40215-5 0  9991,2 53724  53.2159 147.1287 0001486  66.2635 293.8513 15.08843457 76486,6917.87,95.437,540.763,538.707,0.0
53724.0,STARLINK-4663,PAYLOAD,2024-01-21 14:45:42,15.08846151,0.0001392,53.2159,146.8301,78.0922,282.0226,9.4158e-06,-1.38e-06,0.0,0 STARLINK-4663,1 53724U 22107AA  24021.61507752 -.00000138  00000-0  94158-5 0  9990,2 53724  53.2159 146.8301 0001392  78.0922 282.0226 15.08846151 76952,6917.862,95.437,540.69,538.764,0.0
53724.0,STARLINK-4663,PAYLOAD,2024-01-22 14:36:29,15.08840093,0.0001366,53.2158,142.3694,91.0336,269.0813,9.7201e-05,1.259e-05,0.0,0 STARLINK-4663,1 53724U 22107AA  24022.60867933  .00001259  00000-0  97201-4 0  9995,2 53724  53.2158 142.3694 0001366  91.0336 269.0813 15.08840093 76644,6917.88,95.438,540.69,538.8,0.0
53724.0,STARLINK-4663,PAYLOAD,2024-01-23 14:27:16,15.0885005,0.0001344,53.2161,137.9083,93.382,266.7326,9.0736e-05,1.157e-05,0.0,0 STARLINK-4663,1 53724U 22107AA  24023.60227252  .00001157  00000-0  90736-4 0  9993,2 53724  53.2161 137.9083 0001344  93.3820 266.7326 15.08850050 77254,6917.85,95.437,540.644,538.785,0.0
53724.0,STARLINK-4663,PAYLOAD,2024-01-24 11:07:18,15.08835074,0.0001549,53.2163,134.0412,115.5389,244.5763,-3.9707e-05,-9.2e-06,0.0,0 STARLINK-4663,1 53724U 22107AA  24024.46340642 -.00000920  00000-0 -39707-4 0  9997,2 53724  53.2163 134.0412 0001549 115.5389 244.5763 15.08835074 76925,6917.895,95.438,540.832,538.689,0.0
53724.0,STARLINK-4663,PAYLOAD,2024-01-24 12:42:41,15.08836431,0.0001565,53.2172,133.744,114.9582,245.1573,-3.7602e-05,-8.86e-06,0.0,0 STARLINK-4663,1 53724U 22107AA  24024.52964571 -.00000886  00000-0 -37602-4 0  9990,2 53724  53.2172 133.7440 0001565 114.9582 245.1573 15.08836431 77394,6917.891,95.438,540.839,538.674,0.0
53724.0,STARLINK-4663,PAYLOAD,2024-01-25 14:08:51,15.08840618,0.0001311,53.2167,128.9909,89.1651,270.9491,-7.7499e-05,-1.521e-05,0.0,0 STARLINK-4663,1 53724U 22107AA  24025.58949068 -.00001521  00000-0 -77499-4 0  9996,2 53724  53.2167 128.9909 0001311  89.1651 270.9491 15.08840618 77558,6917.878,95.438,540.65,538.837,0.0
53724.0,STARLINK-4663,PAYLOAD,2024-01-26 13:59:39,15.08797393,0.0001771,53.2173,124.5287,74.2442,285.8745,0.00084507,0.00013171,0.0,0 STARLINK-4663,1 53724U 22107AA  24026.58309351  .00013171  00000-0  84507-3 0  9991,2 53724  53.2173 124.5287 0001771  74.2442 285.8745 15.08797393 77704,6918.011,95.44,541.101,538.65,0.0
53724.0,STARLINK-4663,PAYLOAD,2024-01-27 12:15:02,15.08843713,0.0001375,53.2169,120.365,84.2711,275.8438,8.2121e-05,1.019e-05,0.0,0 STARLINK-4663,1 53724U 22107AA  24027.51044767  .00001019  00000-0  82121-4 0  9991,2 53724  53.2169 120.3650 0001375  84.2711 275.8438 15.08843713 77387,6917.869,95.437,540.685,538.783,0.0
53724.0,STARLINK-4663,PAYLOAD,2024-01-27 13:50:25,15.0884337,0.0001724,53.2176,120.0705,66.6898,293.4275,0.00011988,1.621e-05,0.0,0 STARLINK-4663,1 53724U 22107AA  24027.57668879  .00001621  00000-0  11988-3 0  9994,2 53724  53.2176 120.0705 0001724  66.6898 293.4275 15.08843370 77857,6917.87,95.437,540.928,538.542,0.0
53724.0,STARLINK-4663,PAYLOAD,2024-01-28 12:05:50,15.08843266,0.0001905,53.2178,115.9073,65.2747,294.8444,-7.2194e-05,-1.437e-05,0.0,0 STARLINK-4663,1 53724U 22107AA  24028.50405395 -.00001437  00000-0 -72194-4 0  9994,2 53724  53.2178 115.9073 0001905  65.2747 294.8444 15.08843266 77531,6917.87,95.437,541.053,538.418,0.0
53724.0,STARLINK-4663,PAYLOAD,2024-01-29 10:21:13,15.08853847,0.0001557,53.2177,111.7432,79.9279,280.1889,1.1692e-05,-1.02e-06,0.0,0 STARLINK-4663,1 53724U 22107AA  24029.43140153 -.00000102  00000-0  11692-4 0  9998,2 53724  53.2177 111.7432 0001557  79.9279 280.1889 15.08853847 77670,6917.838,95.437,540.78,538.626,0.0
53724.0,STARLINK-4663,PAYLOAD,2024-01-30 11:47:24,15.08834669,0.0001581,53.2183,106.9853,93.5919,266.5254,5.493e-06,-2.01e-06,0.0,0 STARLINK-4663,1 53724U 22107AA  24030.49125262 -.00000201  00000-0  54930-5 0  9993,2 53724  53.2183 106.9853 0001581  93.5919 266.5254 15.08834669 77833,6917.897,95.438,540.855,538.668,0.0
